0 ARIANE 5 R/B
1 37239U 10065C   13282.14449444  .00252774 -13510-6  71728-3 0  1811
2 37239 002.1439 117.8003 5301414 281.3337 339.1437 05.30138225 36626
0 ARIANE 5 R/B
1 37239U 10065C   13282.54416606  .00250469 -21842-6  70593-3 0  1825
2 37239 002.1433 117.3003 5300168 282.3425 022.0602 05.30357370 36647
0 ARIANE 5 R/B
1 37239U 10065C   13283.49172468  .00258073 -39772-6  72111-3 0  1834
2 37239 002.1431 116.0829 5297094 284.7602 032.1466 05.30887096 36691
0 ARIANE 5 R/B
1 37239U 10065C   13284.02342635  .00256229 -47679-6  71768-3 0  1843
2 37239 002.1442 115.3656 5295406 286.1471 328.6134 05.31168158 36729
0 ARIANE 5 R/B
1 37239U 10065C   13285.55737855  .00263585 -57426-6  70821-3 0  1869
2 37239 002.1439 113.5254 5291221 289.9455 023.9549 05.31932298 36801
0 ARIANE 5 R/B
1 37239U 10065C   13286.09730826  .00262877 -55828-6  70276-3 0  1872
2 37239 002.1443 112.8459 5289728 291.3125 338.1518 05.32191445 36837
0 ARIANE 5 R/B
1 37239U 10065C   13286.70219598  .00263447 -51211-6  69404-3 0  1886
2 37239 002.1454 112.0768 5288149 292.8510 057.4011 05.32478886 36863
0 ARIANE 5 R/B
1 37239U 10065C   13287.63212846  .00278517 -39534-6  71920-3 0  1893
2 37239 002.1458 110.8917 5285516 295.2217 040.8688 05.32952369 36910
0 ARIANE 5 R/B
1 37239U 10065C   13288.16450294  .00296989 -31209-6  76536-3 0  1907
2 37239 002.1450 110.1665 5283659 296.6271 342.6414 05.33269150 36949
0 ARIANE 5 R/B
1 37239U 10065C   13289.09924273  .00300644 -15565-6  76119-3 0  1912
2 37239 002.1454 108.9733 5280675 299.0142 338.0770 05.33798960 36998
0 ARIANE 5 R/B
1 37239U 10065C   13289.50146709  .00305793 -89697-7  76613-3 0  1926
2 37239 002.1457 108.4541 5279440 300.0485 031.2085 05.34022894 37016
0 ARIANE 5 R/B
1 37239U 10065C   13290.21702573  .00315599  18148-7  77371-3 0  1933
2 37239 002.1458 107.5661 5277200 301.8542 327.4294 05.34433025 37053
0 ARIANE 5 R/B
1 37239U 10065C   13290.62907481  .00318038  72254-7  76377-3 0  1948
2 37239 002.1481 107.0771 5275972 302.8722 040.3967 05.34670628 37073
0 ARIANE 5 R/B
1 37239U 10065C   13291.92450853  .00308566  19311-6  76377-3 0  1958
2 37239 002.1489 105.4156 5270825 306.1893 015.7870 05.35497341 37145
0 ARIANE 5 R/B
1 37239U 10065C   13292.09092481  .00312012  20282-6  72806-3 0  1960
2 37239 002.1485 105.1993 5271211 306.6275 336.5163 05.35517880 37157
0 ARIANE 5 R/B
1 37239U 10065C   13292.69081187  .00313115  22633-6  71930-3 0  1972
2 37239 002.1488 104.4332 5269317 308.1649 053.4236 05.35861219 37182
0 ARIANE 5 R/B
1 37239U 10065C   13293.01881374  .00310365  23191-6  70636-3 0  1982
2 37239 002.1492 104.0194 5268233 309.0009 326.3013 05.36058349 37206
0 ARIANE 5 R/B
1 37239U 10065C   13294.14364495  .00307961  21585-6  67904-3 0  1995
2 37239 002.1507 102.5845 5264700 311.8837 338.3444 05.36702998 37267
0 ARIANE 5 R/B
1 37239U 10065C   13294.53754657  .00309294  19885-6  67448-3 0  2008
2 37239 002.1504 102.0906 5263507 312.8874 019.5851 05.36921326 37283
0 ARIANE 5 R/B
1 37239U 10065C   13294.54433848  .00309061  19852-6  67422-3 0  2014
2 37239 002.1500 102.0774 5263487 312.9099 032.7114 05.36924163 37280
0 ARIANE 5 R/B
1 37239U 10065C   13295.07245554  .00306929  16780-6  66256-3 0  2020
2 37239 002.1498 101.4041 5261631 314.2640 333.8588 05.37253971 37319
0 ARIANE 5 R/B
1 37239U 10065C   13295.47171106  .00310037  13956-6  66002-3 0  2032
2 37239 002.1492 100.8745 5260352 315.3106 026.2419 05.37491296 37337
0 ARIANE 5 R/B
1 37239U 10065C   13295.99657394  .00308066  96897-7  65066-3 0  2042
2 37239 002.1495 100.1980 5258519 316.6642 322.1537 05.37813451 37368
